{
  "type": "FeatureCollection",
  "features": [
    {
      "type": "Feature",
      "properties": {
        "name": "Boston Area",
        "poverty_rate": 18.5,
        "children_total": 15000,
        "children_poverty": 2775
      },
      "geometry": {
        "type": "Polygon",
        "coordinates": [
          [
            [
              -71.15889999999999,
              42.2601
            ],
            [
              -70.9589,
              42.2601
            ],
            [
              -70.9589,
              42.460100000000004
            ],
            [
              -71.15889999999999,
              42.460100000000004
            ],
            [
              -71.15889999999999,
              42.2601
            ]
          ]
        ]
      }
    },
    {
      "type": "Feature",
      "properties": {
        "name": "Worcester Area",
        "poverty_rate": 22.3,
        "children_total": 8000,
        "children_poverty": 1784
      },
      "geometry": {
        "type": "Polygon",
        "coordinates": [
          [
            [
              -71.9023,
              42.1626
            ],
            [
              -71.70230000000001,
              42.1626
            ],
            [
              -71.70230000000001,
              42.3626
            ],
            [
              -71.9023,
              42.3626
            ],
            [
              -71.9023,
              42.1626
            ]
          ]
        ]
      }
    },
    {
      "type": "Feature",
      "properties": {
        "name": "Springfield Area",
        "poverty_rate": 28.4,
        "children_total": 12000,
        "children_poverty": 3408
      },
      "geometry": {
        "type": "Polygon",
        "coordinates": [
          [
            [
              -72.68979999999999,
              42.0015
            ],
            [
              -72.4898,
              42.0015
            ],
            [
              -72.4898,
              42.2015
            ],
            [
              -72.68979999999999,
              42.2015
            ],
            [
              -72.68979999999999,
              42.0015
            ]
          ]
        ]
      }
    },
    {
      "type": "Feature",
      "properties": {
        "name": "Cambridge Area",
        "poverty_rate": 12.1,
        "children_total": 6000,
        "children_poverty": 726
      },
      "geometry": {
        "type": "Polygon",
        "coordinates": [
          [
            [
              -71.2097,
              42.2736
            ],
            [
              -71.00970000000001,
              42.2736
            ],
            [
              -71.00970000000001,
              42.473600000000005
            ],
            [
              -71.2097,
              42.473600000000005
            ],
            [
              -71.2097,
              42.2736
            ]
          ]
        ]
      }
    },
    {
      "type": "Feature",
      "properties": {
        "name": "Lowell Area",
        "poverty_rate": 20.8,
        "children_total": 10000,
        "children_poverty": 2080
      },
      "geometry": {
        "type": "Polygon",
        "coordinates": [
          [
            [
              -71.41619999999999,
              42.5334
            ],
            [
              -71.2162,
              42.5334
            ],
            [
              -71.2162,
              42.7334
            ],
            [
              -71.41619999999999,
              42.7334
            ],
            [
              -71.41619999999999,
              42.5334
            ]
          ]
        ]
      }
    },
    {
      "type": "Feature",
      "properties": {
        "name": "New Bedford Area",
        "poverty_rate": 25.6,
        "children_total": 9000,
        "children_poverty": 2304
      },
      "geometry": {
        "type": "Polygon",
        "coordinates": [
          [
            [
              -71.0342,
              41.5362
            ],
            [
              -70.83420000000001,
              41.5362
            ],
            [
              -70.83420000000001,
              41.736200000000004
            ],
            [
              -71.0342,
              41.736200000000004
            ],
            [
              -71.0342,
              41.5362
            ]
          ]
        ]
      }
    }
  ]
}