{
  "type": "FeatureCollection",
  "features": [
    {
      "type": "Feature",
      "properties": {
        "name": "Boston Area",
        "density": 12500,
        "population": 675000,
        "area_sqmi": 10
      },
      "geometry": {
        "type": "Polygon",
        "coordinates": [
          [
            [
              -71.15889999999999,
              42.2601
            ],
            [
              -70.9589,
              42.2601
            ],
            [
              -70.9589,
              42.460100000000004
            ],
            [
              -71.15889999999999,
              42.460100000000004
            ],
            [
              -71.15889999999999,
              42.2601
            ]
          ]
        ]
      }
    },
    {
      "type": "Feature",
      "properties": {
        "name": "Worcester Area",
        "density": 8200,
        "population": 185000,
        "area_sqmi": 10
      },
      "geometry": {
        "type": "Polygon",
        "coordinates": [
          [
            [
              -71.9023,
              42.1626
            ],
            [
              -71.70230000000001,
              42.1626
            ],
            [
              -71.70230000000001,
              42.3626
            ],
            [
              -71.9023,
              42.3626
            ],
            [
              -71.9023,
              42.1626
            ]
          ]
        ]
      }
    },
    {
      "type": "Feature",
      "properties": {
        "name": "Springfield Area",
        "density": 6800,
        "population": 155000,
        "area_sqmi": 10
      },
      "geometry": {
        "type": "Polygon",
        "coordinates": [
          [
            [
              -72.68979999999999,
              42.0015
            ],
            [
              -72.4898,
              42.0015
            ],
            [
              -72.4898,
              42.2015
            ],
            [
              -72.68979999999999,
              42.2015
            ],
            [
              -72.68979999999999,
              42.0015
            ]
          ]
        ]
      }
    },
    {
      "type": "Feature",
      "properties": {
        "name": "Cambridge Area",
        "density": 15000,
        "population": 118000,
        "area_sqmi": 10
      },
      "geometry": {
        "type": "Polygon",
        "coordinates": [
          [
            [
              -71.2097,
              42.2736
            ],
            [
              -71.00970000000001,
              42.2736
            ],
            [
              -71.00970000000001,
              42.473600000000005
            ],
            [
              -71.2097,
              42.473600000000005
            ],
            [
              -71.2097,
              42.2736
            ]
          ]
        ]
      }
    },
    {
      "type": "Feature",
      "properties": {
        "name": "Lowell Area",
        "density": 9500,
        "population": 112000,
        "area_sqmi": 10
      },
      "geometry": {
        "type": "Polygon",
        "coordinates": [
          [
            [
              -71.41619999999999,
              42.5334
            ],
            [
              -71.2162,
              42.5334
            ],
            [
              -71.2162,
              42.7334
            ],
            [
              -71.41619999999999,
              42.7334
            ],
            [
              -71.41619999999999,
              42.5334
            ]
          ]
        ]
      }
    },
    {
      "type": "Feature",
      "properties": {
        "name": "New Bedford Area",
        "density": 5400,
        "population": 95000,
        "area_sqmi": 10
      },
      "geometry": {
        "type": "Polygon",
        "coordinates": [
          [
            [
              -71.0342,
              41.5362
            ],
            [
              -70.83420000000001,
              41.5362
            ],
            [
              -70.83420000000001,
              41.736200000000004
            ],
            [
              -71.0342,
              41.736200000000004
            ],
            [
              -71.0342,
              41.5362
            ]
          ]
        ]
      }
    }
  ]
}