{
  "type": "FeatureCollection",
  "features": [
    {
      "type": "Feature",
      "properties": {
        "DISTRICT": "Boston Public Schools",
        "DISTRICT_ID": "00350000",
        "ENROLLMENT": 50000,
        "GRADE_SPAN": "PK-12"
      },
      "geometry": {
        "type": "Polygon",
        "coordinates": [
          [
            [
              -71.15889999999999,
              42.2601
            ],
            [
              -70.9589,
              42.2601
            ],
            [
              -70.9589,
              42.460100000000004
            ],
            [
              -71.15889999999999,
              42.460100000000004
            ],
            [
              -71.15889999999999,
              42.2601
            ]
          ]
        ]
      }
    },
    {
      "type": "Feature",
      "properties": {
        "DISTRICT": "Worcester Public Schools",
        "DISTRICT_ID": "00351000",
        "ENROLLMENT": 25000,
        "GRADE_SPAN": "PK-12"
      },
      "geometry": {
        "type": "Polygon",
        "coordinates": [
          [
            [
              -71.9023,
              42.1626
            ],
            [
              -71.70230000000001,
              42.1626
            ],
            [
              -71.70230000000001,
              42.3626
            ],
            [
              -71.9023,
              42.3626
            ],
            [
              -71.9023,
              42.1626
            ]
          ]
        ]
      }
    },
    {
      "type": "Feature",
      "properties": {
        "DISTRICT": "Springfield Public Schools",
        "DISTRICT_ID": "00352000",
        "ENROLLMENT": 24000,
        "GRADE_SPAN": "PK-12"
      },
      "geometry": {
        "type": "Polygon",
        "coordinates": [
          [
            [
              -72.68979999999999,
              42.0015
            ],
            [
              -72.4898,
              42.0015
            ],
            [
              -72.4898,
              42.2015
            ],
            [
              -72.68979999999999,
              42.2015
            ],
            [
              -72.68979999999999,
              42.0015
            ]
          ]
        ]
      }
    },
    {
      "type": "Feature",
      "properties": {
        "DISTRICT": "Cambridge Public Schools",
        "DISTRICT_ID": "00353000",
        "ENROLLMENT": 6500,
        "GRADE_SPAN": "PK-12"
      },
      "geometry": {
        "type": "Polygon",
        "coordinates": [
          [
            [
              -71.2097,
              42.2736
            ],
            [
              -71.00970000000001,
              42.2736
            ],
            [
              -71.00970000000001,
              42.473600000000005
            ],
            [
              -71.2097,
              42.473600000000005
            ],
            [
              -71.2097,
              42.2736
            ]
          ]
        ]
      }
    },
    {
      "type": "Feature",
      "properties": {
        "DISTRICT": "Lowell Public Schools",
        "DISTRICT_ID": "00354000",
        "ENROLLMENT": 14000,
        "GRADE_SPAN": "PK-12"
      },
      "geometry": {
        "type": "Polygon",
        "coordinates": [
          [
            [
              -71.41619999999999,
              42.5334
            ],
            [
              -71.2162,
              42.5334
            ],
            [
              -71.2162,
              42.7334
            ],
            [
              -71.41619999999999,
              42.7334
            ],
            [
              -71.41619999999999,
              42.5334
            ]
          ]
        ]
      }
    },
    {
      "type": "Feature",
      "properties": {
        "DISTRICT": "New Bedford Public Schools",
        "DISTRICT_ID": "00355000",
        "ENROLLMENT": 12000,
        "GRADE_SPAN": "PK-12"
      },
      "geometry": {
        "type": "Polygon",
        "coordinates": [
          [
            [
              -71.0342,
              41.5362
            ],
            [
              -70.83420000000001,
              41.5362
            ],
            [
              -70.83420000000001,
              41.736200000000004
            ],
            [
              -71.0342,
              41.736200000000004
            ],
            [
              -71.0342,
              41.5362
            ]
          ]
        ]
      }
    }
  ]
}