{
  "type": "FeatureCollection",
  "features": [
    {
      "type": "Feature",
      "properties": {
        "name": "Boston Area",
        "working_parent_pct": 72.5,
        "total_households": 25000,
        "working_parent_households": 18125
      },
      "geometry": {
        "type": "Polygon",
        "coordinates": [
          [
            [
              -71.15889999999999,
              42.2601
            ],
            [
              -70.9589,
              42.2601
            ],
            [
              -70.9589,
              42.460100000000004
            ],
            [
              -71.15889999999999,
              42.460100000000004
            ],
            [
              -71.15889999999999,
              42.2601
            ]
          ]
        ]
      }
    },
    {
      "type": "Feature",
      "properties": {
        "name": "Worcester Area",
        "working_parent_pct": 68.3,
        "total_households": 15000,
        "working_parent_households": 10245
      },
      "geometry": {
        "type": "Polygon",
        "coordinates": [
          [
            [
              -71.9023,
              42.1626
            ],
            [
              -71.70230000000001,
              42.1626
            ],
            [
              -71.70230000000001,
              42.3626
            ],
            [
              -71.9023,
              42.3626
            ],
            [
              -71.9023,
              42.1626
            ]
          ]
        ]
      }
    },
    {
      "type": "Feature",
      "properties": {
        "name": "Springfield Area",
        "working_parent_pct": 64.8,
        "total_households": 18000,
        "working_parent_households": 11664
      },
      "geometry": {
        "type": "Polygon",
        "coordinates": [
          [
            [
              -72.68979999999999,
              42.0015
            ],
            [
              -72.4898,
              42.0015
            ],
            [
              -72.4898,
              42.2015
            ],
            [
              -72.68979999999999,
              42.2015
            ],
            [
              -72.68979999999999,
              42.0015
            ]
          ]
        ]
      }
    },
    {
      "type": "Feature",
      "properties": {
        "name": "Cambridge Area",
        "working_parent_pct": 78.9,
        "total_households": 12000,
        "working_parent_households": 9468
      },
      "geometry": {
        "type": "Polygon",
        "coordinates": [
          [
            [
              -71.2097,
              42.2736
            ],
            [
              -71.00970000000001,
              42.2736
            ],
            [
              -71.00970000000001,
              42.473600000000005
            ],
            [
              -71.2097,
              42.473600000000005
            ],
            [
              -71.2097,
              42.2736
            ]
          ]
        ]
      }
    },
    {
      "type": "Feature",
      "properties": {
        "name": "Lowell Area",
        "working_parent_pct": 70.2,
        "total_households": 16000,
        "working_parent_households": 11232
      },
      "geometry": {
        "type": "Polygon",
        "coordinates": [
          [
            [
              -71.41619999999999,
              42.5334
            ],
            [
              -71.2162,
              42.5334
            ],
            [
              -71.2162,
              42.7334
            ],
            [
              -71.41619999999999,
              42.7334
            ],
            [
              -71.41619999999999,
              42.5334
            ]
          ]
        ]
      }
    },
    {
      "type": "Feature",
      "properties": {
        "name": "New Bedford Area",
        "working_parent_pct": 66.5,
        "total_households": 14000,
        "working_parent_households": 9310
      },
      "geometry": {
        "type": "Polygon",
        "coordinates": [
          [
            [
              -71.0342,
              41.5362
            ],
            [
              -70.83420000000001,
              41.5362
            ],
            [
              -70.83420000000001,
              41.736200000000004
            ],
            [
              -71.0342,
              41.736200000000004
            ],
            [
              -71.0342,
              41.5362
            ]
          ]
        ]
      }
    }
  ]
}